NORAD_CAT_ID,OBJECT_NAME,OBJECT_TYPE,EPOCH,MEAN_MOTION,ECCENTRICITY,INCLINATION,RA_OF_ASC_NODE,ARG_OF_PERICENTER,MEAN_ANOMALY,BSTAR,MEAN_MOTION_DOT,MEAN_MOTION_DDOT,TLE_LINE0,TLE_LINE1,TLE_LINE2,SEMIMAJOR_AXIS,PERIOD,APOGEE,PERIGEE,DECAYED
52546.0,STARLINK-3948,PAYLOAD,2023-09-17 04:40:04,15.08848922,0.0001438,53.2158,229.1627,92.3793,267.7363,0.00010399,1.368e-05,0.0,0 STARLINK-3948,1 52546U 22051P   23260.19449750  .00001368  00000-0  10399-3 0  9997,2 52546  53.2158 229.1627 0001438  92.3793 267.7363 15.08848922 74907,6917.853,95.437,540.713,538.723,0.0
52546.0,STARLINK-3948,PAYLOAD,2023-09-17 17:23:09,15.08842554,0.0001501,53.216,226.7833,95.3328,264.7836,0.00011426,1.531e-05,0.0,0 STARLINK-3948,1 52546U 22051P   23260.72441992  .00001531  00000-0  11426-3 0  9990,2 52546  53.2160 226.7833 0001501  95.3328 264.7836 15.08842554 75054,6917.873,95.437,540.776,538.699,0.0
52546.0,STARLINK-3948,PAYLOAD,2023-09-18 04:30:51,15.08843632,0.0001379,53.2161,224.702,92.6487,267.4663,6.9663e-05,8.21e-06,0.0,0 STARLINK-3948,1 52546U 22051P   23261.18809989  .00000821  00000-0  69663-4 0  9993,2 52546  53.2161 224.7020 0001379  92.6487 267.4663 15.08843632 75056,6917.869,95.437,540.688,538.78,0.0
52546.0,STARLINK-3948,PAYLOAD,2023-09-19 02:46:15,15.08850652,0.000172,53.2158,220.537,118.1912,241.9254,0.00012734,1.74e-05,0.0,0 STARLINK-3948,1 52546U 22051P   23262.11545198  .00001740  00000-0  12734-3 0  9993,2 52546  53.2158 220.5370 0001720 118.1912 241.9254 15.08850652 75267,6917.848,95.437,540.903,538.523,0.0
52546.0,STARLINK-3948,PAYLOAD,2023-09-19 07:32:24,15.08861798,0.0001398,53.2158,219.6448,102.7437,257.3711,0.0003229,4.858e-05,0.0,0 STARLINK-3948,1 52546U 22051P   23262.31416783  .00004858  00000-0  32290-3 0  9994,2 52546  53.2158 219.6448 0001398 102.7437 257.3711 15.08861798 75299,6917.814,95.436,540.646,538.712,0.0
52546.0,STARLINK-3948,PAYLOAD,2023-09-20 02:37:03,15.08832431,0.0001331,53.2158,216.0775,91.9162,268.1983,-4.2658e-05,-9.67e-06,0.0,0 STARLINK-3948,1 52546U 22051P   23263.10906296 -.00000967  00000-0 -42658-4 0  9994,2 52546  53.2158 216.0775 0001331  91.9162 268.1983 15.08832431 75411,6917.904,95.438,540.689,538.848,0.0
52546.0,STARLINK-3948,PAYLOAD,2023-09-20 13:44:45,15.0882976,0.0001259,53.2152,213.9957,86.2602,273.8534,-9.335e-05,-1.773e-05,0.0,0 STARLINK-3948,1 52546U 22051P   23263.57274695 -.00001773  00000-0 -93350-4 0  9997,2 52546  53.2152 213.9957 0001259  86.2602 273.8534 15.08829760 75414,6917.912,95.438,540.648,538.906,0.0
52546.0,STARLINK-3948,PAYLOAD,2023-09-21 05:38:37,15.08834195,0.0001645,53.2167,211.0237,97.48,262.6379,-2.3416e-05,-6.61e-06,0.0,0 STARLINK-3948,1 52546U 22051P   23264.23515139 -.00000661  00000-0 -23416-4 0  9993,2 52546  53.2167 211.0237 0001645  97.4800 262.6379 15.08834195 75582,6917.898,95.438,540.901,538.625,0.0
52546.0,STARLINK-3948,PAYLOAD,2023-09-22 03:54:00,15.08859136,0.0001569,53.2154,206.8595,86.5337,273.5835,0.00081419,0.000127,0.0,0 STARLINK-3948,1 52546U 22051P   23265.16250938  .00012700  00000-0  81419-3 0  9990,2 52546  53.2154 206.8595 0001569  86.5337 273.5835 15.08859136 75722,6917.822,95.436,540.772,538.601,0.0
52546.0,STARLINK-3948,PAYLOAD,2023-09-22 05:29:23,15.08866656,0.0001655,53.2153,206.5609,83.7053,276.4128,0.001086,0.00017051,0.0,0 STARLINK-3948,1 52546U 22051P   23265.22874857  .00017051  00000-0  10860-2 0  9994,2 52546  53.2153 206.5609 0001655  83.7053 276.4128 15.08866656 75669,6917.799,95.436,540.809,538.519,0.0
52546.0,STARLINK-3948,PAYLOAD,2023-09-23 02:09:24,15.08862187,0.0001573,53.2148,202.6963,81.5765,278.5405,0.0008933,0.00013966,0.0,0 STARLINK-3948,1 52546U 22051P   23266.08986732  .00013966  00000-0  89330-3 0  9995,2 52546  53.2148 202.6963 0001573  81.5765 278.5405 15.08862187 75866,6917.813,95.436,540.766,538.589,0.0
52546.0,STARLINK-3948,PAYLOAD,2023-09-23 05:20:10,15.08856477,0.0001695,53.215,202.0998,88.9001,271.2185,0.0011937,0.00018769,0.0,0 STARLINK-3948,1 52546U 22051P   23266.22234732  .00018769  00000-0  11937-2 0  9990,2 52546  53.2150 202.0998 0001695  88.9001 271.2185 15.08856477 75815,6917.83,95.437,540.868,538.522,0.0
52546.0,STARLINK-3948,PAYLOAD,2023-09-24 02:00:11,15.08844565,0.0001493,53.2144,198.2308,81.3375,278.7786,0.00083869,0.00013087,0.0,0 STARLINK-3948,1 52546U 22051P   23267.08346867  .00013087  00000-0  83869-3 0  9990,2 52546  53.2144 198.2308 0001493  81.3375 278.7786 15.08844565 76013,6917.866,95.437,540.764,538.699,0.0
52546.0,STARLINK-3948,PAYLOAD,2023-09-24 05:10:57,15.08849573,0.0001519,53.2147,197.6372,76.6325,283.4837,0.001024,0.00016051,0.0,0 STARLINK-3948,1 52546U 22051P   23267.21594815  .00016051  00000-0  10240-2 0  9999,2 52546  53.2147 197.6372 0001519  76.6325 283.4837 15.08849573 75968,6917.851,95.437,540.767,538.665,0.0
52546.0,STARLINK-3948,PAYLOAD,2023-09-24 19:29:26,15.08836435,0.0001663,53.2152,194.9631,98.0788,262.0393,0.00045337,6.934e-05,0.0,0 STARLINK-3948,1 52546U 22051P   23267.81210982  .00006934  00000-0  45337-3 0  9990,2 52546  53.2152 194.9631 0001663  98.0788 262.0393 15.08836435 76125,6917.891,95.438,540.907,538.606,0.0
52546.0,STARLINK-3948,PAYLOAD,2023-09-24 22:40:12,15.08839782,0.0001938,53.2145,194.3647,116.4223,243.6968,0.00059644,9.217e-05,0.0,0 STARLINK-3948,1 52546U 22051P   23267.94458899  .00009217  00000-0  59644-3 0  9998,2 52546  53.2145 194.3647 0001938 116.4223 243.6968 15.08839782 76077,6917.881,95.438,541.087,538.405,0.0
52546.0,STARLINK-3948,PAYLOAD,2023-09-25 05:01:45,15.0886155,0.0001469,53.215,193.1778,97.7547,262.3612,0.0017582,0.00027821,0.0,0 STARLINK-3948,1 52546U 22051P   23268.20954888  .00027821  00000-0  17582-2 0  9992,2 52546  53.2150 193.1778 0001469  97.7547 262.3612 15.08861550 76188,6917.815,95.436,540.696,538.663,0.0
52546.0,STARLINK-3948,PAYLOAD,2023-09-25 22:30:58,15.08864482,0.0001421,53.2159,189.9028,113.1912,246.923,0.00086081,0.00013447,0.0,0 STARLINK-3948,1 52546U 22051P   23268.93818005  .00013447  00000-0  86081-3 0  9992,2 52546  53.2159 189.9028 0001421 113.1912 246.9230 15.08864482 76221,6917.806,95.436,540.654,538.688,0.0
52546.0,STARLINK-3948,PAYLOAD,2023-09-26 01:41:44,15.08869835,0.0001475,53.2156,189.3107,97.4803,262.6357,0.00079811,0.00012447,0.0,0 STARLINK-3948,1 52546U 22051P   23269.07065833  .00012447  00000-0  79811-3 0  9993,2 52546  53.2156 189.3107 0001475  97.4803 262.6357 15.08869835 76314,6917.789,95.436,540.675,538.634,0.0
52546.0,STARLINK-3948,PAYLOAD,2023-09-26 04:52:30,15.0887258,0.0001466,53.2157,188.7157,97.7857,262.3301,0.00074705,0.00011632,0.0,0 STARLINK-3948,1 52546U 22051P   23269.20313522  .00011632  00000-0  74705-3 0  9991,2 52546  53.2157 188.7157 0001466  97.7857 262.3301 15.08872580 76266,6917.781,95.435,540.66,538.632,0.0
52546.0,STARLINK-3948,PAYLOAD,2023-09-26 17:35:36,15.0884037,0.000279,53.2158,186.3371,84.9794,275.1516,-1.3689e-05,-5.06e-06,0.0,0 STARLINK-3948,1 52546U 22051P   23269.73306573 -.00000506  00000-0 -13689-4 0  9992,2 52546  53.2158 186.3371 0002790  84.9794 275.1516 15.08840370 76417,6917.879,95.438,541.674,537.814,0.0
52546.0,STARLINK-3948,PAYLOAD,2023-09-27 04:43:19,15.08824393,0.0001436,53.2158,184.2558,71.0231,289.0917,0.0001526,2.141e-05,0.0,0 STARLINK-3948,1 52546U 22051P   23270.19675245  .00002141  00000-0  15260-3 0  9990,2 52546  53.2158 184.2558 0001436  71.0231 289.0917 15.08824393 76483,6917.928,95.439,540.787,538.8,0.0
52546.0,STARLINK-3948,PAYLOAD,2023-09-27 11:04:52,15.08817432,0.0001469,53.2157,183.0664,76.3267,283.7889,0.00016325,2.31e-05,0.0,0 STARLINK-3948,1 52546U 22051P   23270.46171769  .00002310  00000-0  16325-3 0  9993,2 52546  53.2157 183.0664 0001469  76.3267 283.7889 15.08817432 76452,6917.949,95.439,540.831,538.798,0.0
52546.0,STARLINK-3948,PAYLOAD,2023-09-27 23:47:57,15.08823517,0.0001449,53.2156,180.688,81.0482,279.0674,3.7019e-05,3.01e-06,0.0,0 STARLINK-3948,1 52546U 22051P   23270.99164333  .00000301  00000-0  37019-4 0  9992,2 52546  53.2156 180.6880 0001449  81.0482 279.0674 15.08823517 76602,6917.931,95.439,540.798,538.793,0.0
52546.0,STARLINK-3948,PAYLOAD,2023-09-28 22:03:21,15.08852106,0.0001451,53.2161,176.5255,85.6475,274.4683,0.00066457,0.00010308,0.0,0 STARLINK-3948,1 52546U 22051P   23271.91900029  .00010308  00000-0  66457-3 0  9990,2 52546  53.2161 176.5255 0001451  85.6475 274.4683 15.08852106 76675,6917.843,95.437,540.712,538.705,0.0
52546.0,STARLINK-3948,PAYLOAD,2023-09-28 23:38:44,15.08857966,0.0001465,53.216,176.2283,85.9119,274.204,0.00082513,0.00012875,0.0,0 STARLINK-3948,1 52546U 22051P   23271.98523941  .00012875  00000-0  82513-3 0  9993,2 52546  53.2160 176.2283 0001465  85.9119 274.2040 15.08857966 76758,6917.825,95.436,540.704,538.677,0.0
52546.0,STARLINK-3948,PAYLOAD,2023-09-29 02:49:30,15.0886675,0.0001449,53.2159,175.6336,89.7636,270.3522,0.00092829,0.00014527,0.0,0 STARLINK-3948,1 52546U 22051P   23272.11771633  .00014527  00000-0  92829-3 0  9999,2 52546  53.2159 175.6336 0001449  89.7636 270.3522 15.08866750 76704,6917.799,95.436,540.666,538.661,0.0
52546.0,STARLINK-3948,PAYLOAD,2023-09-30 01:04:53,15.08869354,0.0001392,53.2153,171.4731,81.4557,278.6593,0.00088765,0.00013878,0.0,0 STARLINK-3948,1 52546U 22051P   23273.04506944  .00013878  00000-0  88765-3 0  9995,2 52546  53.2153 171.4731 0001392  81.4557 278.6593 15.08869354 76914,6917.791,95.436,540.619,538.693,0.0
52546.0,STARLINK-3948,PAYLOAD,2023-09-30 16:58:46,15.08822851,0.0001786,53.2151,168.498,101.5182,258.6011,0.0010491,0.0001644,0.0,0 STARLINK-3948,1 52546U 22051P   23273.70747692  .00016440  00000-0  10491-2 0  9993,2 52546  53.2151 168.4980 0001786 101.5182 258.6011 15.08822851 77015,6917.933,95.439,541.033,538.562,0.0
52546.0,STARLINK-3948,PAYLOAD,2023-10-01 10:28:00,15.08842932,0.0001473,53.2159,165.2271,103.6754,256.4402,0.0012271,0.00019297,0.0,0 STARLINK-3948,1 52546U 22051P   23274.43611990  .00019297  00000-0  12271-2 0  9996,2 52546  53.2159 165.2271 0001473 103.6754 256.4402 15.08842932 77058,6917.871,95.437,540.755,538.717,0.0
